*******************************************************************************
JPL/HORIZONS               618 Elfriede (A906 UM)          2020-Jun-22 09:16:44
Rec #:     618 (+COV) Soln.date: 2020-Feb-22_15:32:21   # obs: 2604 (1906-2019)
 
IAU76/J2000 helio. ecliptic osc. elements (au, days, deg., period=Julian yrs):
 
  EPOCH=  2455462.5 ! 2010-Sep-23.00 (TDB)         Residual RMS= .27066
   EC= .07520375597791595  QR= 2.948539828135441   TP= 2454699.8168305266
   OM= 111.1099775300599   W=  228.2029460196526   IN= 17.04048518558884
   A= 3.188312936168272    MA= 132.0403979915058   ADIST= 3.428086044201104
   PER= 5.69311            N= .173126141           ANGMOM= .030628824
   DAN= 3.33757            DDN= 3.01896            L= 338.0320386
   B= -12.619175           MOID= 1.96240997        TP= 2008-Aug-21.3168305266
 
Asteroid physical parameters (km, seconds, rotational period in hours):
   GM= n.a.                RAD= 65.646             ROTPER= 14.791
   H= 8.3                  G= .150                 B-V= .696
                           ALBEDO= .050            STYP= C
 
ASTEROID comments: 
1: soln ref.= JPL#107, OCC=0
2: source=ORB
*******************************************************************************
 
 
*******************************************************************************
Ephemeris / WWW_USER Mon Jun 22 09:16:44 2020 Pasadena, USA      / Horizons
*******************************************************************************
Target body name: 618 Elfriede (A906 UM)          {source: JPL#107}
Center body name: Solar System Barycenter (0)     {source: DE431}
Center-site name: BODY CENTER
*******************************************************************************
Start time      : A.D. 1969-Jun-28 00:00:00.0000 TDB
Stop  time      : A.D. 2071-May-04 00:00:00.0000 TDB
Step-size       : 7200 minutes
*******************************************************************************
Center geodetic : 0.00000000,0.00000000,0.0000000 {E-lon(deg),Lat(deg),Alt(km)}
Center cylindric: 0.00000000,0.00000000,0.0000000 {E-lon(deg),Dxy(km),Dz(km)}
Center radii    : (undefined)                                                  
Small perturbers: Yes                             {source: SB431-N16}
Output units    : AU-D
Output type     : GEOMETRIC cartesian states
Output format   : 2 (position and velocity)
Reference frame : Ecliptic of J2000.0
*******************************************************************************
Initial IAU76/J2000 heliocentric ecliptic osculating elements (au, days, deg.):
  EPOCH=  2455462.5 ! 2010-Sep-23.00 (TDB)         Residual RMS= .27066        
   EC= .07520375597791595  QR= 2.948539828135441   TP= 2454699.8168305266      
   OM= 111.1099775300599   W=  228.2029460196526   IN= 17.04048518558884       
  Equivalent ICRF heliocentric equatorial cartesian coordinates (au, au/d):
   X=-1.528476345284651E+00  Y= 2.698953720676638E+00  Z= 1.286959466697885E+00
  VX=-7.950120980262432E-03 VY=-4.381202933165070E-03 VZ= 1.013323751434975E-03
Asteroid physical parameters (km, seconds, rotational period in hours):        
   GM= n.a.                RAD= 65.646             ROTPER= 14.791              
   H= 8.3                  G= .150                 B-V= .696                   
                           ALBEDO= .050            STYP= C                     
*******************************************************************************
            JDTDB,            Calendar Date (TDB),        delta-T,                      X,                      Y,                      Z,                     VX,                     VY,                     VZ,
******************************************************************************************************************************************************************************************************************
$$SOE
2442780.500000000, A.D. 1976-Jan-03 00:00:00.0000,      47.183961,  2.790906035952255E-01,  3.150098347215747E+00, -4.334593404679077E-01, -9.086197069793422E-03,  1.999242525640337E-03,  2.364945302988226E-03,
2442785.500000000, A.D. 1976-Jan-08 00:00:00.0000,      47.184106,  2.336296871929359E-01,  3.159736976070947E+00, -4.215859286969829E-01, -9.097818439980030E-03,  1.856232071210499E-03,  2.384316738684302E-03,
2442790.500000000, A.D. 1976-Jan-13 00:00:00.0000,      47.184249,  1.881159177257656E-01,  3.168660924644747E+00, -4.096171992641249E-01, -9.107340702648393E-03,  1.713375628713686E-03,  2.403072469627932E-03,
2442795.500000000, A.D. 1976-Jan-18 00:00:00.0000,      47.184388,  1.425597543648014E-01,  3.176871040776797E+00, -3.975562290392566E-01, -9.114778456438441E-03,  1.570704219316138E-03,  2.421213182358075E-03,
2442800.500000000, A.D. 1976-Jan-23 00:00:00.0000,      47.184525,  9.697158252104277E-02,  3.184368326051973E+00, -3.854060910886257E-01, -9.120146604033527E-03,  1.428248320297710E-03,  2.438739711001481E-03,
2442805.500000000, A.D. 1976-Jan-28 00:00:00.0000,      47.184660,  5.136171236519477E-02,  3.191153933086274E+00, -3.731698539487315E-01, -9.123460336292962E-03,  1.286037867207863E-03,  2.455653032558780E-03,
2442810.500000000, A.D. 1976-Feb-02 00:00:00.0000,      47.184791,  5.740377424804980E-03,  3.197229162824575E+00, -3.608505809235663E-01, -9.124735117146978E-03,  1.144102256582206E-03,  2.471954262248720E-03,
2442815.500000000, A.D. 1976-Feb-07 00:00:00.0000,      47.184915, -3.988226674411170E-02,  3.202595461854237E+00, -3.484513294053266E-01, -9.123986668823216E-03,  1.002470349525902E-03,  2.487644648782206E-03,
2442820.500000000, A.D. 1976-Feb-12 00:00:00.0000,      47.185030, -8.549614381185143E-02,  3.207254419737865E+00, -3.359751502187138E-01, -9.121230957194833E-03,  8.611704757111300E-04,  2.502725569674670E-03,
2442825.500000000, A.D. 1976-Feb-17 00:00:00.0000,      47.185136, -1.310912578571826E-01,  3.211207766366450E+00, -3.234250869883780E-01, -9.116484177415392E-03,  7.202304375239400E-04,  2.517198526681018E-03,
2442830.500000000, A.D. 1976-Feb-22 00:00:00.0000,      47.185235, -1.766576944786642E-01,  3.214457369333657E+00, -3.108041755288815E-01, -9.109762739955358E-03,  5.796775143865468E-04,  2.531065141348773E-03,
2442835.500000000, A.D. 1976-Feb-27 00:00:00.0000,      47.185325, -2.221856218371946E-01,  3.217005231332276E+00, -2.981154432566414E-01, -9.101083257056839E-03,  4.395384673039084E-04,  2.544327150671796E-03,
2442840.500000000, A.D. 1976-Mar-03 00:00:00.0000,      47.185407, -2.676652916318616E-01,  3.218853487574006E+00, -2.853619086233769E-01, -9.090462529597580E-03,  2.998395436528467E-04,  2.556986402833828E-03,
2442845.500000000, A.D. 1976-Mar-08 00:00:00.0000,      47.185477, -3.130870400111129E-01,  3.220004403233774E+00, -2.725465805706155E-01, -9.077917534354012E-03,  1.606064822037029E-04,  2.569044853039655E-03,
2442850.500000000, A.D. 1976-Mar-13 00:00:00.0000,      47.185534, -3.584412884212268E-01,  3.220460370919716E+00, -2.596724580048308E-01, -9.063465411657137E-03,  2.186451836023214E-05,  2.580504559433230E-03,
2442855.500000000, A.D. 1976-Mar-18 00:00:00.0000,      47.185579, -4.037185443940350E-01,  3.220223908169867E+00, -2.467425292927691E-01, -9.047123453436534E-03, -1.163616103996653E-04,  2.591367679103051E-03,
2442860.500000000, A.D. 1976-Mar-23 00:00:00.0000,      47.185613, -4.489094022758296E-01,  3.219297654976511E+00, -2.337597717765287E-01, -9.028909091651339E-03, -2.540476589027016E-04,  2.601636464176193E-03,
2442865.500000000, A.D. 1976-Mar-28 00:00:00.0000,      47.185636, -4.940045438993955E-01,  3.217684371339057E+00, -2.207271513079470E-01, -9.008839887108414E-03, -3.911698684961298E-04,  2.611313258001595E-03,
2442870.500000000, A.D. 1976-Apr-02 00:00:00.0000,      47.185648, -5.389947392011303E-01,  3.215386934846206E+00, -2.076476218018439E-01, -8.986933518684260E-03, -5.277049611124022E-04,  2.620400491423148E-03,
2442875.500000000, A.D. 1976-Apr-07 00:00:00.0000,      47.185647, -5.838708467853437E-01,  3.212408338288249E+00, -1.945241248076928E-01, -8.963207772981997E-03, -6.636301331481417E-04,  2.628900679134812E-03,
2442880.500000000, A.D. 1976-Apr-12 00:00:00.0000,      47.185633, -6.286238144379344E-01,  3.208751687300616E+00, -1.813595890993489E-01, -8.937680534411158E-03, -7.989230490362270E-04,  2.636816416093887E-03,
2442885.500000000, A.D. 1976-Apr-17 00:00:00.0000,      47.185605, -6.732446795912533E-01,  3.204420198040502E+00, -1.681569302826035E-01, -8.910369775536052E-03, -9.335618345074688E-04,  2.644150373985781E-03,
2442890.500000000, A.D. 1976-Apr-22 00:00:00.0000,      47.185567, -7.177245697407683E-01,  3.199417194897275E+00, -1.549190504201874E-01, -8.881293547450927E-03, -1.067525069883929E-03,  2.650905297794722E-03,
2442895.500000000, A.D. 1976-Apr-27 00:00:00.0000,      47.185519, -7.620547028143558E-01,  3.193746108235269E+00, -1.416488376734409E-01, -8.850469970546613E-03, -1.200791783832487E-03,  2.657084002562965E-03,
2442900.500000000, A.D. 1976-May-02 00:00:00.0000,      47.185461, -8.062263874972541E-01,  3.187410472167734E+00, -1.283491659599166E-01, -8.817917226013451E-03, -1.333341447015845E-03,  2.662689370241065E-03,
2442905.500000000, A.D. 1976-May-07 00:00:00.0000,      47.185391, -8.502310235158957E-01,  3.180413922363844E+00, -1.150228946266826E-01, -8.783653547820954E-03, -1.465153965225540E-03,  2.667724346550424E-03,
2442910.500000000, A.D. 1976-May-12 00:00:00.0000,      47.185310, -8.940601018821549E-01,  3.172760193890809E+00, -1.016728681392141E-01, -8.747697214886843E-03, -1.596209672266889E-03,  2.672191937901939E-03,
2442915.500000000, A.D. 1976-May-17 00:00:00.0000,      47.185219, -9.377052050989731E-01,  3.164453119091614E+00, -8.830191578544352E-02, -8.710066543478948E-03, -1.726489322838608E-03,  2.676095208412523E-03,
